NORAD_CAT_ID,OBJECT_NAME,OBJECT_TYPE,EPOCH,MEAN_MOTION,ECCENTRICITY,INCLINATION,RA_OF_ASC_NODE,ARG_OF_PERICENTER,MEAN_ANOMALY,BSTAR,MEAN_MOTION_DOT,MEAN_MOTION_DDOT,TLE_LINE0,TLE_LINE1,TLE_LINE2,SEMIMAJOR_AXIS,PERIOD,APOGEE,PERIGEE,DECAYED
53153.0,STARLINK-4098,PAYLOAD,2023-09-02 12:24:55,15.0885047,0.0001267,53.2187,330.4482,100.8788,259.2347,0.00018536,2.664e-05,0.0,0 STARLINK-4098,1 53153U 22083X   23245.51730785  .00002664  00000-0  18536-3 0  9998,2 53153  53.2187 330.4482 0001267 100.8788 259.2347 15.08850470 62599,6917.848,95.437,540.59,538.837,0.0
53153.0,STARLINK-4098,PAYLOAD,2023-09-03 12:15:41,15.0885905,0.0001423,53.217,325.9894,91.7104,268.4051,0.00024228,3.572e-05,0.0,0 STARLINK-4098,1 53153U 22083X   23246.51089908  .00003572  00000-0  24228-3 0  9997,2 53153  53.2170 325.9894 0001423  91.7104 268.4051 15.08859050 62745,6917.822,95.436,540.672,538.703,0.0
53153.0,STARLINK-4098,PAYLOAD,2023-09-03 17:01:50,15.08864117,0.0001452,53.217,325.0972,94.9888,265.127,0.00038631,5.87e-05,0.0,0 STARLINK-4098,1 53153U 22083X   23246.70961546  .00005870  00000-0  38631-3 0  9991,2 53153  53.2170 325.0972 0001452  94.9888 265.1270 15.08864117 63400,6917.807,95.436,540.676,538.667,0.0
53153.0,STARLINK-4098,PAYLOAD,2023-09-03 21:48:01,15.08830352,0.0001322,53.2182,324.2074,84.2565,275.8578,-0.00036111,-6.029e-05,0.0,0 STARLINK-4098,1 53153U 22083X   23246.90834916 -.00006029  00000-0 -36111-3 0  9993,2 53153  53.2182 324.2074 0001322  84.2565 275.8578 15.08830352 63433,6917.91,95.438,540.689,538.86,0.0
53153.0,STARLINK-4098,PAYLOAD,2023-09-04 12:06:30,15.08820618,0.0001702,53.2164,321.529,88.0702,272.0485,-0.00028598,-4.834e-05,0.0,0 STARLINK-4098,1 53153U 22083X   23247.50451718 -.00004834  00000-0 -28598-3 0  9997,2 53153  53.2164 321.5290 0001702  88.0702 272.0485 15.08820618 62899,6917.94,95.439,540.982,538.627,0.0
53153.0,STARLINK-4098,PAYLOAD,2023-09-05 13:32:41,15.08831385,0.0001462,53.2173,316.7728,86.5931,273.5229,0.0001639,2.321e-05,0.0,0 STARLINK-4098,1 53153U 22083X   23248.56436488  .00002321  00000-0  16390-3 0  9995,2 53153  53.2173 316.7728 0001462  86.5931 273.5229 15.08831385 63055,6917.907,95.438,540.783,538.76,0.0
53153.0,STARLINK-4098,PAYLOAD,2023-09-05 21:29:36,15.08840022,0.0001478,53.2174,315.2861,84.1191,275.997,0.00038074,5.777e-05,0.0,0 STARLINK-4098,1 53153U 22083X   23248.89556512  .00005777  00000-0  38074-3 0  9993,2 53153  53.2174 315.2861 0001478  84.1191 275.9970 15.08840022 63739,6917.88,95.438,540.768,538.723,0.0
53153.0,STARLINK-4098,PAYLOAD,2023-09-06 13:23:27,15.08861314,0.0001426,53.2161,312.3094,70.5123,289.6023,0.00072655,0.00011301,0.0,0 STARLINK-4098,1 53153U 22083X   23249.55795801  .00011301  00000-0  72655-3 0  9996,2 53153  53.2161 312.3094 0001426  70.5123 289.6023 15.08861314 63208,6917.815,95.436,540.667,538.694,0.0
53153.0,STARLINK-4098,PAYLOAD,2023-09-06 16:34:13,15.08871549,0.0001432,53.2156,311.7145,69.5994,290.5152,0.00085896,0.00013421,0.0,0 STARLINK-4098,1 53153U 22083X   23249.69043424  .00013421  00000-0  85896-3 0  9994,2 53153  53.2156 311.7145 0001432  69.5994 290.5152 15.08871549 63859,6917.784,95.436,540.64,538.658,0.0
53153.0,STARLINK-4098,PAYLOAD,2023-09-07 08:28:04,15.08851985,0.0001428,53.2148,308.7406,83.1931,276.9223,0.00026916,4e-05,0.0,0 STARLINK-4098,1 53153U 22083X   23250.35283505  .00004000  00000-0  26916-3 0  9996,2 53153  53.2148 308.7406 0001428  83.1931 276.9223 15.08851985 63954,6917.844,95.437,540.697,538.721,0.0
53153.0,STARLINK-4098,PAYLOAD,2023-09-07 13:14:14,15.08853418,0.0001355,53.2148,307.8486,84.8594,275.2552,0.00052573,8.092e-05,0.0,0 STARLINK-4098,1 53153U 22083X   23250.55155445  .00008092  00000-0  52573-3 0  9992,2 53153  53.2148 307.8486 0001355  84.8594 275.2552 15.08853418 63358,6917.839,95.437,540.642,538.767,0.0
53153.0,STARLINK-4098,PAYLOAD,2023-09-07 21:11:10,15.08844327,0.0001675,53.2142,306.3612,85.8363,274.2821,0.00049601,7.616e-05,0.0,0 STARLINK-4098,1 53153U 22083X   23250.88275764  .00007616  00000-0  49601-3 0  9994,2 53153  53.2142 306.3612 0001675  85.8363 274.2821 15.08844327 64030,6917.867,95.437,540.891,538.573,0.0
53153.0,STARLINK-4098,PAYLOAD,2023-09-08 09:54:15,15.08847778,0.0001673,53.215,303.9827,86.3442,273.7742,0.00013596,1.877e-05,0.0,0 STARLINK-4098,1 53153U 22083X   23251.41267603  .00001877  00000-0  13596-3 0  9994,2 53153  53.2150 303.9827 0001673  86.3442 273.7742 15.08847778 63489,6917.857,95.437,540.879,538.564,0.0
53153.0,STARLINK-4098,PAYLOAD,2023-09-08 21:01:57,15.08843101,0.0001684,53.2153,301.9019,82.1685,277.9498,0.00020644,2.999e-05,0.0,0 STARLINK-4098,1 53153U 22083X   23251.87635876  .00002999  00000-0  20644-3 0  9993,2 53153  53.2153 301.9019 0001684  82.1685 277.9498 15.08843101 64186,6917.871,95.437,540.901,538.571,0.0
53153.0,STARLINK-4098,PAYLOAD,2023-09-09 09:45:02,15.08843025,0.0001537,53.2153,299.5224,88.2301,271.8867,0.00013784,1.907e-05,0.0,0 STARLINK-4098,1 53153U 22083X   23252.40627849  .00001907  00000-0  13784-3 0  9999,2 53153  53.2153 299.5224 0001537  88.2301 271.8867 15.08843025 63632,6917.871,95.437,540.799,538.673,0.0
53153.0,STARLINK-4098,PAYLOAD,2023-09-10 09:35:49,15.08844411,0.0001479,53.2161,295.0628,89.8045,270.3116,0.00013707,1.894e-05,0.0,0 STARLINK-4098,1 53153U 22083X   23253.39987797  .00001894  00000-0  13707-3 0  9999,2 53153  53.2161 295.0628 0001479  89.8045 270.3116 15.08844411 64415,6917.867,95.437,540.755,538.709,0.0
53153.0,STARLINK-4098,PAYLOAD,2023-09-10 12:46:35,15.08845462,0.0001479,53.216,294.4679,90.1796,269.9366,0.0001444,2.011e-05,0.0,0 STARLINK-4098,1 53153U 22083X   23253.53235716  .00002011  00000-0  14440-3 0  9999,2 53153  53.2160 294.4679 0001479  90.1796 269.9366 15.08845462 63801,6917.864,95.437,540.752,538.706,0.0
53153.0,STARLINK-4098,PAYLOAD,2023-09-11 03:05:04,15.08836369,0.0001498,53.2165,291.7907,93.5614,266.5549,5.8272e-05,6.39e-06,0.0,0 STARLINK-4098,1 53153U 22083X   23254.12852390  .00000639  00000-0  58272-4 0  9994,2 53153  53.2165 291.7907 0001498  93.5614 266.5549 15.08836369 64529,6917.891,95.438,540.793,538.72,0.0
53153.0,STARLINK-4098,PAYLOAD,2023-09-11 09:26:37,15.08836716,0.0001452,53.2166,290.6028,87.3482,272.7677,5.7853e-05,6.33e-06,0.0,0 STARLINK-4098,1 53153U 22083X   23254.39348450  .00000633  00000-0  57853-4 0  9998,2 53153  53.2166 290.6028 0001452  87.3482 272.7677 15.08836716 63937,6917.89,95.438,540.76,538.751,0.0
53153.0,STARLINK-4098,PAYLOAD,2023-09-12 10:52:46,15.08847625,0.0001479,53.2168,285.8448,84.685,275.4311,0.0001188,1.604e-05,0.0,0 STARLINK-4098,1 53153U 22083X   23255.45331650  .00001604  00000-0  11880-3 0  9998,2 53153  53.2168 285.8448 0001479  84.6850 275.4311 15.08847625 64723,6917.857,95.437,540.745,538.699,0.0
53153.0,STARLINK-4098,PAYLOAD,2023-09-13 09:08:10,15.08845642,0.0001468,53.2166,281.6808,81.8517,278.2641,0.00015699,2.212e-05,0.0,0 STARLINK-4098,1 53153U 22083X   23256.38067867  .00002212  00000-0  15699-3 0  9995,2 53153  53.2166 281.6808 0001468  81.8517 278.2641 15.08845642 64861,6917.863,95.437,540.744,538.713,0.0
53153.0,STARLINK-4098,PAYLOAD,2023-09-13 12:18:56,15.08846822,0.0001472,53.2165,281.0858,81.1903,278.9256,0.00015975,2.256e-05,0.0,0 STARLINK-4098,1 53153U 22083X   23256.51315753  .00002256  00000-0  15975-3 0  9995,2 53153  53.2165 281.0858 0001472  81.1903 278.9256 15.08846822 64259,6917.86,95.437,540.743,538.706,0.0
53153.0,STARLINK-4098,PAYLOAD,2023-09-13 18:40:29,15.08841122,0.0001863,53.2175,279.8948,74.2849,285.8349,-2.868e-05,-7.45e-06,0.0,0 STARLINK-4098,1 53153U 22083X   23256.77812089 -.00000745  00000-0 -28680-4 0  9998,2 53153  53.2175 279.8948 0001863  74.2849 285.8349 15.08841122 64293,6917.877,95.437,541.031,538.453,0.0
53153.0,STARLINK-4098,PAYLOAD,2023-09-14 02:37:26,15.08827205,0.0001625,53.2177,278.4105,83.9608,276.157,-8.2112e-05,-1.594e-05,0.0,0 STARLINK-4098,1 53153U 22083X   23257.10933711 -.00001594  00000-0 -82112-4 0  9995,2 53153  53.2177 278.4105 0001625  83.9608 276.1570 15.08827205 64971,6917.919,95.438,540.909,538.66,0.0
53153.0,STARLINK-4098,PAYLOAD,2023-09-14 08:58:59,15.08828926,0.0001679,53.2175,277.2208,77.8931,282.2249,-5.7498e-05,-1.203e-05,0.0,0 STARLINK-4098,1 53153U 22083X   23257.37429829 -.00001203  00000-0 -57498-4 0  9990,2 53153  53.2175 277.2208 0001679  77.8931 282.2249 15.08828926 64387,6917.914,95.438,540.941,538.618,0.0
53153.0,STARLINK-4098,PAYLOAD,2023-09-14 18:31:17,15.08833628,0.0001659,53.2176,275.4367,79.7374,280.3805,-2.0558e-05,-6.15e-06,0.0,0 STARLINK-4098,1 53153U 22083X   23257.77173578 -.00000615  00000-0 -20558-4 0  9994,2 53153  53.2176 275.4367 0001659  79.7374 280.3805 15.08833628 64443,6917.9,95.438,540.913,538.617,0.0
53153.0,STARLINK-4098,PAYLOAD,2023-09-15 00:52:50,15.08837212,0.00017,53.2178,274.2469,80.573,279.5454,1.1664e-05,-1.02e-06,0.0,0 STARLINK-4098,1 53153U 22083X   23258.03669556 -.00000102  00000-0  11664-4 0  9998,2 53153  53.2178 274.2469 0001700  80.5730 279.5454 15.08837212 65116,6917.889,95.438,540.93,538.578,0.0
53153.0,STARLINK-4098,PAYLOAD,2023-09-15 07:14:22,15.08839918,0.0001785,53.2168,273.0583,79.3119,280.8074,0.00010598,1.399e-05,0.0,0 STARLINK-4098,1 53153U 22083X   23258.30165275  .00001399  00000-0  10598-3 0  9999,2 53153  53.2168 273.0583 0001785  79.3119 280.8074 15.08839918 64521,6917.881,95.438,540.98,538.511,0.0
53153.0,STARLINK-4098,PAYLOAD,2023-09-16 00:43:37,15.08848586,0.0001731,53.2159,269.7865,78.2574,281.8612,0.00012184,1.652e-05,0.0,0 STARLINK-4098,1 53153U 22083X   23259.03028951  .00001652  00000-0  12184-3 0  9994,2 53153  53.2159 269.7865 0001731  78.2574 281.8612 15.08848586 65262,6917.854,95.437,540.917,538.522,0.0
53153.0,STARLINK-4098,PAYLOAD,2023-09-16 10:15:55,15.08857492,0.0001579,53.2147,268.0021,80.6269,279.4902,0.00055842,8.615e-05,0.0,0 STARLINK-4098,1 53153U 22083X   23259.42772917  .00008615  00000-0  55842-3 0  9999,2 53153  53.2147 268.0021 0001579  80.6269 279.4902 15.08857492 64690,6917.827,95.436,540.784,538.6,0.0
